[{"OBJECT_NAME":"SUPERVIEW NEO-1 04","OBJECT_ID":"2025-040B","EPOCH":"2026-03-06T19:28:03.599328","MEAN_MOTION":15.21660643,"ECCENTRICITY":0.00018105,"INCLINATION":97.3404,"RA_OF_ASC_NODE":182.7609,"ARG_OF_PERICENTER":125.6161,"MEAN_ANOMALY":234.5244,"EPHEMERIS_TYPE":0,"CLASSIFICATION_TYPE":"U","NORAD_CAT_ID":63126,"ELEMENT_SET_NO":999,"REV_AT_EPOCH":5662,"BSTAR":0.00040582804,"MEAN_MOTION_DOT":9.111e-5,"MEAN_MOTION_DDOT":0},{"OBJECT_NAME":"SCS-01 G","OBJECT_ID":"2025-100G","EPOCH":"2026-03-09T22:06:35.300160","MEAN_MOTION":15.25626619,"ECCENTRICITY":0.00115239,"INCLINATION":97.3761,"RA_OF_ASC_NODE":145.2582,"ARG_OF_PERICENTER":298.6971,"MEAN_ANOMALY":61.3108,"EPHEMERIS_TYPE":0,"CLASSIFICATION_TYPE":"U","NORAD_CAT_ID":63988,"ELEMENT_SET_NO":999,"REV_AT_EPOCH":4562,"BSTAR":0.00025501168,"MEAN_MOTION_DOT":6.423e-5,"MEAN_MOTION_DDOT":0}]
